*******************************************************************************
Ephemeris / WWW_USER Mon Mar 24 08:33:06 2025 Pasadena, USA      / Horizons    
*******************************************************************************
Target body name: (2018 WD2)                      {source: JPL#7}
Center body name: Earth (399)                     {source: DE441}
Center-site name: Mauna Kea
*******************************************************************************
Start time      : A.D. 2019-Jan-16 04:13:00.0000 UT      
Stop  time      : A.D. 2019-Jan-16 16:49:00.0000 UT      
Step-size       : 1 minutes
*******************************************************************************
Target pole/equ : undefined
Target radii    : undefined                                                    
Center geodetic : 204.5278, 19.8260847, 4.21024   {E-lon(deg),Lat(deg),Alt(km)}
Center cylindric: 204.5278, 6006.35451, 2151.0229 {E-lon(deg),Dxy(km),Dz(km)}
Center pole/equ : ITRF93                          {East-longitude positive}
Center radii    : 6378.137, 6378.137, 6356.752 km {Equator_a, b, pole_c}       
Target primary  : Sun
Vis. interferer : MOON (R_eq= 1737.400) km        {source: DE441}
Rel. light bend : Sun                             {source: DE441}
Rel. lght bnd GM: 1.3271E+11 km^3/s^2                                          
Small-body perts: Yes                             {source: SB441-N16}
Atmos refraction: NO (AIRLESS)
RA format       : HMS
Time format     : CAL 
Calendar mode   : Mixed Julian/Gregorian
RTS-only print  : NO       
EOP file        : eop.250321.p250617                                           
EOP coverage    : DATA-BASED 1962-JAN-20 TO 2025-MAR-21. PREDICTS-> 2025-JUN-16
Units conversion: 1 au= 149597870.700 km, c= 299792.458 km/s, 1 day= 86400.0 s 
Table cut-offs 1: Elevation (-90.0deg=NO ),Airmass (>38.000=NO), Daylight (YES)
Table cut-offs 2: Solar elongation (  0.0,180.0=NO ),Local Hour Angle( 0.0=NO )
Table cut-offs 3: RA/DEC angular rate (     0.0=NO )                           
*******************************************************************************
Initial IAU76/J2000 heliocentric ecliptic osculating elements (au, days, deg.):
  EPOCH=  2458442.5 ! 2018-Nov-20.00 (TDB)         Residual RMS= .32422        
   EC= .524986067713519    QR= .9778174985080528   TP= 2458471.2675125618      
   OM= 251.0855257113189   W=  198.8561547827716   IN= 2.860917524648221       
  Equivalent ICRF heliocentric cartesian coordinates (au, au/d):
   X= 5.933978759455335E-01  Y= 7.796199626272187E-01  Z= 3.534710331364960E-01
  VX=-1.894544763705440E-02 VY= 7.774789113426014E-03 VZ= 2.252803318104249E-03
Asteroid physical parameters (km, seconds, rotational period in hours):        
   GM= n.a.                RAD= n.a.               ROTPER= n.a.                
   H= 26.2                 G= .150                 B-V= n.a.                   
                           ALBEDO= n.a.            STYP= n.a.                  
*******************************************************************************
 Date__(UT)__HR:MN     R.A._________(ICRF)_________DEC
******************************************************
$$SOE
 2019-Jan-16 14:28     12 16 52.970728 -17 15 21.67764
 2019-Jan-16 14:29     12 16 52.951634 -17 15 21.61048
 2019-Jan-16 14:30     12 16 52.932531 -17 15 21.54304
 2019-Jan-16 14:31     12 16 52.913419 -17 15 21.47531
 2019-Jan-16 14:32     12 16 52.894299 -17 15 21.40729
 2019-Jan-16 14:33     12 16 52.875171 -17 15 21.33899
 2019-Jan-16 14:34     12 16 52.856035 -17 15 21.27039
 2019-Jan-16 14:35     12 16 52.836892 -17 15 21.20152
 2019-Jan-16 14:36     12 16 52.817741 -17 15 21.13235
 2019-Jan-16 14:37     12 16 52.798584 -17 15 21.06290
 2019-Jan-16 14:38     12 16 52.779420 -17 15 20.99316
 2019-Jan-16 14:39     12 16 52.760249 -17 15 20.92313
 2019-Jan-16 14:40     12 16 52.741072 -17 15 20.85282
 2019-Jan-16 14:41     12 16 52.721890 -17 15 20.78221
 2019-Jan-16 14:42     12 16 52.702702 -17 15 20.71132
 2019-Jan-16 14:43     12 16 52.683509 -17 15 20.64014
 2019-Jan-16 14:44     12 16 52.664310 -17 15 20.56868
 2019-Jan-16 14:45     12 16 52.645107 -17 15 20.49692
 2019-Jan-16 14:46     12 16 52.625900 -17 15 20.42488
 2019-Jan-16 14:47     12 16 52.606689 -17 15 20.35255
 2019-Jan-16 14:48     12 16 52.587473 -17 15 20.27994
 2019-Jan-16 14:49     12 16 52.568255 -17 15 20.20703
 2019-Jan-16 14:50     12 16 52.549033 -17 15 20.13384
 2019-Jan-16 14:51     12 16 52.529808 -17 15 20.06035
 2019-Jan-16 14:52     12 16 52.510580 -17 15 19.98658
 2019-Jan-16 14:53     12 16 52.491350 -17 15 19.91253
 2019-Jan-16 14:54     12 16 52.472118 -17 15 19.83818
 2019-Jan-16 14:55     12 16 52.452884 -17 15 19.76355
 2019-Jan-16 14:56     12 16 52.433648 -17 15 19.68862
 2019-Jan-16 14:57  t  12 16 52.414411 -17 15 19.61341
 2019-Jan-16 14:58     12 16 52.395173 -17 15 19.53791
 2019-Jan-16 14:59     12 16 52.375935 -17 15 19.46213
 2019-Jan-16 15:00     12 16 52.356696 -17 15 19.38605
 2019-Jan-16 15:01     12 16 52.337457 -17 15 19.30969
 2019-Jan-16 15:02     12 16 52.318218 -17 15 19.23304
 2019-Jan-16 15:03     12 16 52.298979 -17 15 19.15610
 2019-Jan-16 15:04     12 16 52.279742 -17 15 19.07887
 2019-Jan-16 15:05     12 16 52.260505 -17 15 19.00136
 2019-Jan-16 15:06     12 16 52.241269 -17 15 18.92355
 2019-Jan-16 15:07     12 16 52.222036 -17 15 18.84546
 2019-Jan-16 15:08     12 16 52.202804 -17 15 18.76708
 2019-Jan-16 15:09     12 16 52.183574 -17 15 18.68842
 2019-Jan-16 15:10     12 16 52.164346 -17 15 18.60946
 2019-Jan-16 15:11     12 16 52.145122 -17 15 18.53022
 2019-Jan-16 15:12     12 16 52.125900 -17 15 18.45069
 2019-Jan-16 15:13     12 16 52.106681 -17 15 18.37088
 2019-Jan-16 15:14     12 16 52.087467 -17 15 18.29078
 2019-Jan-16 15:15     12 16 52.068256 -17 15 18.21038
 2019-Jan-16 15:16     12 16 52.049049 -17 15 18.12971
 2019-Jan-16 15:17     12 16 52.029846 -17 15 18.04874
 2019-Jan-16 15:18     12 16 52.010649 -17 15 17.96749
 2019-Jan-16 15:19     12 16 51.991456 -17 15 17.88595
 2019-Jan-16 15:20     12 16 51.972268 -17 15 17.80413
 2019-Jan-16 15:21     12 16 51.953086 -17 15 17.72202
 2019-Jan-16 15:22     12 16 51.933910 -17 15 17.63962
 2019-Jan-16 15:23     12 16 51.914740 -17 15 17.55694
 2019-Jan-16 15:24     12 16 51.895577 -17 15 17.47397
 2019-Jan-16 15:25     12 16 51.876420 -17 15 17.39072
 2019-Jan-16 15:26     12 16 51.857270 -17 15 17.30718
 2019-Jan-16 15:27     12 16 51.838127 -17 15 17.22335
 2019-Jan-16 15:28     12 16 51.818992 -17 15 17.13924
 2019-Jan-16 15:29     12 16 51.799865 -17 15 17.05484
 2019-Jan-16 15:30     12 16 51.780745 -17 15 16.97016
 2019-Jan-16 15:31     12 16 51.761634 -17 15 16.88520
 2019-Jan-16 15:32     12 16 51.742532 -17 15 16.79995
 2019-Jan-16 15:33     12 16 51.723439 -17 15 16.71441
 2019-Jan-16 15:34     12 16 51.704355 -17 15 16.62859
 2019-Jan-16 15:35     12 16 51.685280 -17 15 16.54249
 2019-Jan-16 15:36     12 16 51.666215 -17 15 16.45610
 2019-Jan-16 15:37     12 16 51.647160 -17 15 16.36943
 2019-Jan-16 15:38     12 16 51.628116 -17 15 16.28248
 2019-Jan-16 15:39     12 16 51.609082 -17 15 16.19524
 2019-Jan-16 15:40     12 16 51.590059 -17 15 16.10772
 2019-Jan-16 15:41     12 16 51.571047 -17 15 16.01992
 2019-Jan-16 15:42     12 16 51.552047 -17 15 15.93183
 2019-Jan-16 15:43 A   12 16 51.533058 -17 15 15.84347
 2019-Jan-16 15:44 A   12 16 51.514081 -17 15 15.75482
 2019-Jan-16 15:45 A   12 16 51.495117 -17 15 15.66589
 2019-Jan-16 15:46 A   12 16 51.476165 -17 15 15.57668
 2019-Jan-16 15:47 A   12 16 51.457226 -17 15 15.48718
 2019-Jan-16 15:48 A   12 16 51.438300 -17 15 15.39741
 2019-Jan-16 15:49 A   12 16 51.419388 -17 15 15.30736
 2019-Jan-16 15:50 A   12 16 51.400489 -17 15 15.21702
 2019-Jan-16 15:51 A   12 16 51.381604 -17 15 15.12641
 2019-Jan-16 15:52 A   12 16 51.362733 -17 15 15.03552
 2019-Jan-16 15:53 A   12 16 51.343877 -17 15 14.94434
 2019-Jan-16 15:54 A   12 16 51.325036 -17 15 14.85289
 2019-Jan-16 15:55 A   12 16 51.306210 -17 15 14.76116
 2019-Jan-16 15:56 A   12 16 51.287399 -17 15 14.66915
 2019-Jan-16 15:57 A   12 16 51.268603 -17 15 14.57686
 2019-Jan-16 15:58 A   12 16 51.249824 -17 15 14.48430
 2019-Jan-16 15:59 A   12 16 51.231060 -17 15 14.39145
 2019-Jan-16 16:00 A   12 16 51.212313 -17 15 14.29834
 2019-Jan-16 16:01 A   12 16 51.193583 -17 15 14.20494
 2019-Jan-16 16:02 A   12 16 51.174869 -17 15 14.11127
 2019-Jan-16 16:03 A   12 16 51.156173 -17 15 14.01732
 2019-Jan-16 16:04 A   12 16 51.137495 -17 15 13.92309
 2019-Jan-16 16:05 A   12 16 51.118834 -17 15 13.82859
 2019-Jan-16 16:06 A   12 16 51.100191 -17 15 13.73382
 2019-Jan-16 16:07 A   12 16 51.081566 -17 15 13.63877
 2019-Jan-16 16:08 A   12 16 51.062960 -17 15 13.54345
 2019-Jan-16 16:09 N   12 16 51.044373 -17 15 13.44785
 2019-Jan-16 16:10 N   12 16 51.025805 -17 15 13.35198
 2019-Jan-16 16:11 N   12 16 51.007257 -17 15 13.25583
 2019-Jan-16 16:12 N   12 16 50.988728 -17 15 13.15942
 2019-Jan-16 16:13 N   12 16 50.970219 -17 15 13.06273
 2019-Jan-16 16:14 N   12 16 50.951730 -17 15 12.96577
 2019-Jan-16 16:15 N   12 16 50.933262 -17 15 12.86854
 2019-Jan-16 16:16 N   12 16 50.914815 -17 15 12.77103
 2019-Jan-16 16:17 N   12 16 50.896388 -17 15 12.67326
 2019-Jan-16 16:18 N   12 16 50.877983 -17 15 12.57522
 2019-Jan-16 16:19 N   12 16 50.859599 -17 15 12.47690
 2019-Jan-16 16:20 N   12 16 50.841237 -17 15 12.37832
 2019-Jan-16 16:21 N   12 16 50.822897 -17 15 12.27947
 2019-Jan-16 16:22 N   12 16 50.804579 -17 15 12.18035
 2019-Jan-16 16:23 N   12 16 50.786285 -17 15 12.08096
 2019-Jan-16 16:24 N   12 16 50.768012 -17 15 11.98130
 2019-Jan-16 16:25 N   12 16 50.749763 -17 15 11.88138
 2019-Jan-16 16:26 N   12 16 50.731538 -17 15 11.78119
 2019-Jan-16 16:27 N   12 16 50.713336 -17 15 11.68074
 2019-Jan-16 16:28 N   12 16 50.695158 -17 15 11.58002
 2019-Jan-16 16:29 N   12 16 50.677004 -17 15 11.47903
 2019-Jan-16 16:30 N   12 16 50.658874 -17 15 11.37778
